OBJECT_NAME,OBJECT_ID,EPOCH,MEAN_MOTION,ECCENTRICITY,INCLINATION,RA_OF_ASC_NODE,ARG_OF_PERICENTER,MEAN_ANOMALY,EPHEMERIS_TYPE,CLASSIFICATION_TYPE,NORAD_CAT_ID,ELEMENT_SET_NO,REV_AT_EPOCH,BSTAR,MEAN_MOTION_DOT,MEAN_MOTION_DDOT
STARLINK-36980,2026-049E,2026-06-04T00:51:12.461760,15.33445211,.00015613,97.2837,176.6101,86.6265,273.5156,0,U,68146,999,1288,.66180643E-3,.21351E-3,0
STARLINK-37055,2026-049F,2026-06-04T00:08:08.247264,15.33455347,.00010878,97.2852,176.4989,86.4346,273.7021,0,U,68147,999,1287,.83292206E-3,.26919E-3,0
STARLINK-36981,2026-049G,2026-06-04T01:18:36.921600,15.33422462,.00012052,97.2849,176.5822,62.5687,297.5678,0,U,68148,999,1288,.15436229E-2,.50055E-3,0
STARLINK-36992,2026-049H,2026-06-04T00:55:07.388544,15.33457514,.00015634,97.2832,176.6062,77.6261,282.5156,0,U,68149,999,1288,.81231502E-3,.26251E-3,0
STARLINK-37060,2026-049J,2026-06-04T01:06:52.409088,15.33467665,.00019007,97.2858,176.5995,106.8893,253.2558,0,U,68150,999,1288,.65983585E-3,.21303E-3,0
STARLINK-37073,2026-049K,2026-06-04T01:14:41.836704,15.33461257,.00018027,97.2835,176.5846,109.7187,250.4250,0,U,68151,999,1288,.73603028E-3,.23774E-3,0
STARLINK-37049,2026-049L,2026-06-04T00:47:17.576448,15.33444998,.00011271,97.2834,176.6127,84.1680,275.9692,0,U,68152,999,1288,.72686788E-3,.23464E-3,0
STARLINK-37072,2026-049M,2026-06-04T01:22:31.793952,15.33453835,.00017139,97.2835,176.5799,119.9222,240.2191,0,U,68153,999,1288,.7038148E-3,.22722E-3,0
STARLINK-36241,2026-049N,2026-06-04T06:00:04.000320,15.33442673,.00010131,97.2838,176.6912,101.4692,61.9274,0,U,68154,999,584,-.84254204E-3,-.27176E-3,0
STARLINK-37048,2026-049P,2026-06-04T00:39:27.237312,15.33486325,.0000614,97.2838,176.4682,69.9438,290.1871,0,U,68155,999,1287,.21805798E-2,.7108E-3,0
STARLINK-36313,2026-049Q,2026-06-04T00:31:38.164800,15.33440939,.00015706,97.2833,176.4781,60.2745,299.8654,0,U,68156,999,1287,.90149013E-3,.29137E-3,0
STARLINK-37064,2026-049R,2026-06-04T01:02:58.589088,15.33403419,.0001768,97.2836,176.5976,98.3889,261.7554,0,U,68157,999,1288,.42957043E-3,.13801E-3,0
STARLINK-37069,2026-049S,2026-06-04T00:27:42.003360,15.33501940,.00011415,97.2868,176.4809,67.5467,292.5897,0,U,68158,999,1287,.71153597E-4,.2227E-4,0
STARLINK-37053,2026-049T,2026-06-04T01:30:21.334752,15.33437618,.00013594,97.2834,176.5733,88.7895,271.3504,0,U,68159,999,1288,.76267075E-3,.24622E-3,0
STARLINK-36306,2026-049U,2026-06-04T00:12:03.259584,15.33452404,.00015831,97.2837,176.4917,85.9232,274.2192,0,U,68160,999,1287,.88792338E-3,.28707E-3,0
STARLINK-37057,2026-049V,2026-06-04T00:19:53.046624,15.33451911,.00010628,97.2844,176.4862,106.4966,253.6394,0,U,68161,999,1287,.93386674E-3,.30201E-3,0
STARLINK-37013,2026-049W,2026-06-04T01:38:10.574880,15.33448612,.00014542,97.2837,176.5723,121.9148,238.2237,0,U,68162,999,1288,.79896761E-3,.2581E-3,0
STARLINK-36958,2026-049X,2026-06-04T00:43:22.476864,15.33454043,.00012298,97.2835,176.4625,90.8214,269.3170,0,U,68163,999,1287,.66771437E-3,.21549E-3,0
STARLINK-37002,2026-049Y,2026-06-04T00:15:58.087008,15.33452677,.00009611,97.2850,176.4881,110.9751,249.1595,0,U,68164,999,1287,.93533821E-3,.30249E-3,0
STARLINK-36971,2026-049Z,2026-06-04T00:59:02.392224,15.33445707,.00018258,97.2836,176.6021,104.2050,255.9396,0,U,68165,999,1288,.6347258E-3,.20473E-3,0
STARLINK-36273,2026-049AA,2026-06-04T00:41:35.613024,15.33449412,.00016894,97.2832,177.3810,79.6929,280.4504,0,U,68166,999,1293,.65617404E-3,.21171E-3,0
STARLINK-36969,2026-050A,2026-06-03T12:31:28.744608,15.38826114,.0001134,53.1568,227.4215,90.1577,269.9557,0,U,68167,999,1383,.53440818E-3,.20486E-3,0
STARLINK-36984,2026-050B,2026-06-03T14:44:53.880864,15.34374881,.00017812,53.1565,226.5909,37.9962,322.1166,0,U,68168,999,1385,.80569161E-3,.26922E-3,0
STARLINK-37077,2026-050C,2026-06-04T06:00:04.000320,15.34390804,.00015745,53.1587,224.0205,88.8802,334.4373,0,U,68169,999,590,.19470471E-3,.6206E-4,0
STARLINK-37003,2026-050D,2026-06-03T19:58:38.733600,15.38831801,.00011005,53.1557,225.8027,99.1969,260.9160,0,U,68170,999,1388,.87304551E-3,.33785E-3,0
STARLINK-37034,2026-050E,2026-06-03T12:04:34.466016,15.34420990,.0001216,53.1581,227.3022,139.2678,220.8416,0,U,68171,999,1383,.5337467E-3,.17712E-3,0
STARLINK-37031,2026-050F,2026-06-03T20:17:46.840128,15.34347164,.00014762,53.1589,225.8862,64.8383,295.2772,0,U,68172,999,1388,.12569406E-2,.4226E-3,0
STARLINK-37076,2026-050G,2026-06-03T12:37:53.166720,15.34421875,.00029141,53.1592,227.4429,150.3748,209.7420,0,U,68173,999,1383,.68694235E-3,.22921E-3,0
STARLINK-37078,2026-050H,2026-06-03T20:14:46.328928,15.34428362,.00023853,53.1558,225.8703,46.0228,314.0971,0,U,68174,999,1388,.15081203E-3,.4726E-4,0
STARLINK-36886,2026-050J,2026-06-03T17:49:27.537312,15.34479233,.00015418,53.1574,225.9480,68.6757,291.4410,0,U,68175,999,1387,.11408509E-2,.38465E-3,0
STARLINK-36905,2026-050K,2026-06-03T12:22:45.390432,15.34400895,.00010483,53.1581,227.3735,83.8266,276.2856,0,U,68176,999,1383,.76296668E-3,.2549E-3,0
STARLINK-36668,2026-050L,2026-06-03T11:43:21.889056,15.34400959,.0001315,53.1583,227.2246,123.5459,236.5669,0,U,68177,999,1383,.36332E-3,.11919E-3,0
STARLINK-36677,2026-050M,2026-06-03T10:24:42.625152,15.34432288,.00011377,53.1571,227.5698,130.9859,229.1242,0,U,68178,999,1382,.68540602E-3,.22876E-3,0
STARLINK-37052,2026-050N,2026-06-03T10:48:57.494880,15.38857217,.00010002,53.1575,227.6903,120.7536,239.3567,0,U,68179,999,1382,.11913022E-2,.46361E-3,0
STARLINK-37035,2026-050P,2026-06-03T20:06:09.876384,15.38825975,.00012486,53.1567,225.8350,82.6094,277.5052,0,U,68180,999,1388,-.28052938E-3,-.11312E-3,0
STARLINK-37032,2026-050Q,2026-06-04T06:00:04.000320,15.34358939,.00023664,53.1585,223.9020,101.8180,19.6804,0,U,68181,999,590,.79310704E-3,.26481E-3,0
STARLINK-37082,2026-050R,2026-06-03T12:19:43.584096,15.34392556,.00010506,53.1598,227.3708,130.1119,229.9976,0,U,68182,999,1383,.59253695E-3,.19691E-3,0
STARLINK-37102,2026-050S,2026-06-03T13:54:49.505760,15.38853459,.0001123,53.1570,227.0704,112.9757,247.1366,0,U,68183,999,1384,.75159E-3,.29032E-3,0
STARLINK-36964,2026-050T,2026-06-04T06:00:04.000320,15.34394590,.00011547,53.1580,223.8544,80.2495,64.4686,0,U,68184,999,581,.39274636E-3,.12914E-3,0
STARLINK-37061,2026-050U,2026-06-03T11:16:06.312864,15.34415377,.00020765,53.1586,227.0844,32.4670,327.6460,0,U,68185,999,1383,.12000376E-2,.40408E-3,0
STARLINK-37079,2026-050V,2026-06-04T00:00:02.000160,15.35375087,.00011493,53.1573,224.7573,89.9432,254.0161,0,U,68186,999,597,.12819616E-2,.44566E-3,0
STARLINK-37006,2026-050W,2026-06-03T12:34:53.080608,15.34375924,.00009198,53.1584,227.4311,125.2987,234.8102,0,U,68187,999,1383,.43033758E-3,.1418E-3,0
STARLINK-36305,2026-050Y,2026-06-03T17:25:21.062208,15.34421717,.00023745,53.1597,226.5542,33.5972,326.5181,0,U,68189,999,1376,.73409253E-3,.24525E-3,0
STARLINK-37071,2026-050Z,2026-06-03T11:07:08.965344,15.34407159,.00038939,53.1576,227.7547,14.0851,346.0259,0,U,68190,999,1382,.91952045E-3,.30831E-3,0
STARLINK-37091,2026-050AA,2026-06-03T10:33:48.483072,15.34423738,.00012398,53.1578,227.6100,86.8943,273.2202,0,U,68191,999,1382,.72640827E-3,.24265E-3,0
STARLINK-37098,2026-050AB,2026-06-03T10:21:41.439168,15.34464187,.00012627,53.1573,227.5590,134.1633,225.9473,0,U,68192,999,1382,.11883594E-2,.40071E-3,0
STARLINK-37090,2026-050AC,2026-06-03T12:13:39.727776,15.34391440,.00011606,53.1574,227.3325,115.1404,244.9720,0,U,68193,999,1383,.92851877E-3,.31117E-3,0
STARLINK-37093,2026-050AD,2026-06-03T12:01:32.397024,15.34388337,.00013078,53.1573,227.2807,107.8739,252.2406,0,U,68194,999,1383,.99294295E-3,.33309E-3,0
STARLINK-37058,2026-050AE,2026-06-03T11:28:12.776160,15.34435615,.00011559,53.1581,227.1268,147.5542,212.5532,0,U,68195,999,1227,.78519532E-3,.26276E-3,0
YAOGAN-50 02,2026-051A,2026-06-04T07:00:06.856992,13.83266125,.00007758,141.9879,265.3134,296.3397,63.7243,0,U,68196,999,1120,.13639595E-3,.338E-5,0
2026-052A,2026-052A,2026-06-04T02:53:03.291072,15.10785545,.00128921,97.5325,230.0956,0.0663,0.0566,0,U,68198,999,1207,.40093012E-3,.6606E-4,0
YUXING-3 06,2026-052B,2026-06-04T05:58:31.499616,15.10739096,.00122589,97.5328,230.2307,1.6442,358.4826,0,U,68199,999,1209,.29969995E-3,.4914E-4,0
2026-052C,2026-052C,2026-06-03T14:03:54.230112,15.10803549,.0001768,97.5337,229.5818,65.8485,294.2930,0,U,68200,999,1198,.1399E-3,.226E-4,0
2026-052D,2026-052D,2026-06-04T00:41:04.617888,15.11255599,.00112466,97.5329,230.0633,2.9750,357.1545,0,U,68201,999,1206,.43037642E-3,.7187E-4,0
2026-052E,2026-052E,2026-06-04T02:16:58.604736,15.11242291,.00114222,97.5334,230.1325,7.0251,353.1137,0,U,68202,999,1207,.42800462E-3,.7144E-4,0
2026-052F,2026-052F,2026-06-04T03:32:20.116320,15.11518165,.00107051,97.5320,230.2083,359.0753,1.0455,0,U,68203,999,1208,.44277616E-3,.7449E-4,0
2026-052G,2026-052G,2026-06-04T03:29:36.870432,15.11488808,.00099886,97.5333,230.2152,2.8567,357.2718,0,U,68204,999,1208,.35344302E-3,.5926E-4,0
2026-052J,2026-052J,2026-06-04T03:29:22.545312,14.79985767,.04979236,97.3332,224.3894,111.6183,253.8828,0,U,68206,999,1177,.13218418E-2,.102308E-2,.3149697E-5
STARLINK-36986,2026-053A,2026-06-03T14:59:20.878080,15.33452093,.00028826,97.2827,29.8734,115.1734,244.9808,0,U,68207,999,1338,.63222178E-3,.20397E-3,0
STARLINK-37009,2026-053B,2026-06-04T01:53:12.533856,15.33472513,.00013435,97.2847,30.3307,109.1533,250.9856,0,U,68208,999,1345,.80894673E-3,.26154E-3,0
STARLINK-36948,2026-053C,2026-06-03T14:51:31.132512,15.33445877,.00017252,97.2848,29.8836,93.1872,266.9569,0,U,68209,999,1336,.71155234E-3,.22968E-3,0
STARLINK-37119,2026-053D,2026-06-03T14:47:36.143520,15.33446423,.0001693,97.2854,29.8875,92.0930,268.0507,0,U,68210,999,1338,.74554636E-3,.24072E-3,0
STARLINK-37120,2026-053E,2026-06-03T14:43:41.170944,15.33440945,.00012239,97.2859,29.8915,82.2759,277.8623,0,U,68211,999,1336,.78356146E-3,.25303E-3,0
STARLINK-37117,2026-053F,2026-06-03T14:39:45.483840,15.33425280,.00021595,97.2850,29.8939,119.4468,240.6991,0,U,68212,999,1338,.68936879E-3,.22233E-3,0
